[{"OBJECT_NAME":"ONEWEB-0174","OBJECT_ID":"2021-025AG","EPOCH":"2025-09-07T06:49:22.940256","MEAN_MOTION":13.13471315,"ECCENTRICITY":0.00018562,"INCLINATION":87.9023,"RA_OF_ASC_NODE":16.4286,"ARG_OF_PERICENTER":102.224,"MEAN_ANOMALY":257.9097,"EPHEMERIS_TYPE":0,"CLASSIFICATION_TYPE":"U","NORAD_CAT_ID":48072,"ELEMENT_SET_NO":999,"REV_AT_EPOCH":21669,"BSTAR":1.605014e-6,"MEAN_MOTION_DOT":1.3e-7,"MEAN_MOTION_DDOT":0},{"OBJECT_NAME":"ONEWEB-0175","OBJECT_ID":"2021-025AH","EPOCH":"2025-09-07T02:04:10.631424","MEAN_MOTION":13.13470606,"ECCENTRICITY":0.00013637,"INCLINATION":87.9026,"RA_OF_ASC_NODE":16.4328,"ARG_OF_PERICENTER":96.1864,"MEAN_ANOMALY":263.9421,"EPHEMERIS_TYPE":0,"CLASSIFICATION_TYPE":"U","NORAD_CAT_ID":48073,"ELEMENT_SET_NO":999,"REV_AT_EPOCH":21632,"BSTAR":-0.00022760953,"MEAN_MOTION_DOT":-7.0e-7,"MEAN_MOTION_DDOT":0},{"OBJECT_NAME":"ONEWEB-0177","OBJECT_ID":"2021-025AJ","EPOCH":"2025-09-06T20:52:08.781312","MEAN_MOTION":13.1347115,"ECCENTRICITY":0.0001788,"INCLINATION":87.9027,"RA_OF_ASC_NODE":16.4923,"ARG_OF_PERICENTER":105.1137,"MEAN_ANOMALY":255.019,"EPHEMERIS_TYPE":0,"CLASSIFICATION_TYPE":"U","NORAD_CAT_ID":48074,"ELEMENT_SET_NO":999,"REV_AT_EPOCH":21648,"BSTAR":0.00063895509,"MEAN_MOTION_DOT":2.46e-6,"MEAN_MOTION_DDOT":0},{"OBJECT_NAME":"ONEWEB-0178","OBJECT_ID":"2021-025AK","EPOCH":"2025-09-07T06:27:38.043648","MEAN_MOTION":13.13469398,"ECCENTRICITY":0.00014875,"INCLINATION":87.9032,"RA_OF_ASC_NODE":16.4591,"ARG_OF_PERICENTER":105.5919,"MEAN_ANOMALY":254.5374,"EPHEMERIS_TYPE":0,"CLASSIFICATION_TYPE":"U","NORAD_CAT_ID":48075,"ELEMENT_SET_NO":999,"REV_AT_EPOCH":21658,"BSTAR":0.00077728866,"MEAN_MOTION_DOT":2.97e-6,"MEAN_MOTION_DDOT":0},{"OBJECT_NAME":"ONEWEB-0108","OBJECT_ID":"2021-025AL","EPOCH":"2025-09-07T01:49:32.833344","MEAN_MOTION":13.13470095,"ECCENTRICITY":0.00019149,"INCLINATION":87.9025,"RA_OF_ASC_NODE":16.4437,"ARG_OF_PERICENTER":94.2006,"MEAN_ANOMALY":265.9342,"EPHEMERIS_TYPE":0,"CLASSIFICATION_TYPE":"U","NORAD_CAT_ID":48076,"ELEMENT_SET_NO":999,"REV_AT_EPOCH":21648,"BSTAR":-0.00079395582,"MEAN_MOTION_DOT":-2.77e-6,"MEAN_MOTION_DDOT":0},{"OBJECT_NAME":"ONEWEB-0169","OBJECT_ID":"2021-025AM","EPOCH":"2025-09-07T06:15:15.312960","MEAN_MOTION":13.13470192,"ECCENTRICITY":0.00019214,"INCLINATION":87.9027,"RA_OF_ASC_NODE":16.4302,"ARG_OF_PERICENTER":94.8046,"MEAN_ANOMALY":265.3302,"EPHEMERIS_TYPE":0,"CLASSIFICATION_TYPE":"U","NORAD_CAT_ID":48077,"ELEMENT_SET_NO":999,"REV_AT_EPOCH":21516,"BSTAR":0.00075324008,"MEAN_MOTION_DOT":2.88e-6,"MEAN_MOTION_DDOT":0},{"OBJECT_NAME":"ONEWEB-0176","OBJECT_ID":"2021-031A","EPOCH":"2025-09-07T05:58:50.189664","MEAN_MOTION":13.14503411,"ECCENTRICITY":0.00016787,"INCLINATION":87.9085,"RA_OF_ASC_NODE":346.0286,"ARG_OF_PERICENTER":101.6865,"MEAN_ANOMALY":258.4453,"EPHEMERIS_TYPE":0,"CLASSIFICATION_TYPE":"U","NORAD_CAT_ID":48210,"ELEMENT_SET_NO":999,"REV_AT_EPOCH":21114,"BSTAR":0.00039612926,"MEAN_MOTION_DOT":1.6e-6,"MEAN_MOTION_DDOT":0},{"OBJECT_NAME":"ONEWEB-0184","OBJECT_ID":"2021-031B","EPOCH":"2025-09-07T05:20:00.093120","MEAN_MOTION":13.14502971,"ECCENTRICITY":9.624e-5,"INCLINATION":87.9095,"RA_OF_ASC_NODE":346.0052,"ARG_OF_PERICENTER":108.2979,"MEAN_ANOMALY":251.8255,"EPHEMERIS_TYPE":0,"CLASSIFICATION_TYPE":"U","NORAD_CAT_ID":48211,"ELEMENT_SET_NO":999,"REV_AT_EPOCH":21111,"BSTAR":-0.00042207194,"MEAN_MOTION_DOT":-1.44e-6,"MEAN_MOTION_DDOT":0},{"OBJECT_NAME":"ONEWEB-0179","OBJECT_ID":"2021-031C","EPOCH":"2025-09-07T06:27:21.504096","MEAN_MOTION":13.14501444,"ECCENTRICITY":0.00018912,"INCLINATION":87.9088,"RA_OF_ASC_NODE":346.0123,"ARG_OF_PERICENTER":102.7853,"MEAN_ANOMALY":257.3488,"EPHEMERIS_TYPE":0,"CLASSIFICATION_TYPE":"U","NORAD_CAT_ID":48212,"ELEMENT_SET_NO":999,"REV_AT_EPOCH":21116,"BSTAR":0.00047940933,"MEAN_MOTION_DOT":1.91e-6,"MEAN_MOTION_DDOT":0},{"OBJECT_NAME":"ONEWEB-0180","OBJECT_ID":"2021-031D","EPOCH":"2025-09-07T05:24:34.565184","MEAN_MOTION":13.14503491,"ECCENTRICITY":0.0001772,"INCLINATION":87.9097,"RA_OF_ASC_NODE":346.0101,"ARG_OF_PERICENTER":109.6605,"MEAN_ANOMALY":250.4716,"EPHEMERIS_TYPE":0,"CLASSIFICATION_TYPE":"U","NORAD_CAT_ID":48213,"ELEMENT_SET_NO":999,"REV_AT_EPOCH":21104,"BSTAR":-0.00046464736,"MEAN_MOTION_DOT":-1.59e-6,"MEAN_MOTION_DDOT":0},{"OBJECT_NAME":"ONEWEB-0218","OBJECT_ID":"2021-031E","EPOCH":"2025-09-07T05:56:32.771328","MEAN_MOTION":13.14503469,"ECCENTRICITY":0.00010571,"INCLINATION":87.9097,"RA_OF_ASC_NODE":346.0066,"ARG_OF_PERICENTER":123.4083,"MEAN_ANOMALY":236.7148,"EPHEMERIS_TYPE":0,"CLASSIFICATION_TYPE":"U","NORAD_CAT_ID":48214,"ELEMENT_SET_NO":999,"REV_AT_EPOCH":21120,"BSTAR":0.00036542325,"MEAN_MOTION_DOT":1.48e-6,"MEAN_MOTION_DDOT":0},{"OBJECT_NAME":"ONEWEB-0209","OBJECT_ID":"2021-031F","EPOCH":"2025-09-07T05:40:34.554720","MEAN_MOTION":13.14498064,"ECCENTRICITY":0.00018728,"INCLINATION":87.9092,"RA_OF_ASC_NODE":346.0529,"ARG_OF_PERICENTER":116.1418,"MEAN_ANOMALY":243.9904,"EPHEMERIS_TYPE":0,"CLASSIFICATION_TYPE":"U","NORAD_CAT_ID":48215,"ELEMENT_SET_NO":999,"REV_AT_EPOCH":21120,"BSTAR":0.0015181091,"MEAN_MOTION_DOT":5.76e-6,"MEAN_MOTION_DDOT":0},{"OBJECT_NAME":"ONEWEB-0198","OBJECT_ID":"2021-031G","EPOCH":"2025-09-07T05:17:50.311680","MEAN_MOTION":13.14463466,"ECCENTRICITY":0.00014577,"INCLINATION":87.9092,"RA_OF_ASC_NODE":346.0554,"ARG_OF_PERICENTER":118.0146,"MEAN_ANOMALY":242.1132,"EPHEMERIS_TYPE":0,"CLASSIFICATION_TYPE":"U","NORAD_CAT_ID":48216,"ELEMENT_SET_NO":999,"REV_AT_EPOCH":21131,"BSTAR":-0.0004033867,"MEAN_MOTION_DOT":-1.37e-6,"MEAN_MOTION_DDOT":0},{"OBJECT_NAME":"ONEWEB-0189","OBJECT_ID":"2021-031H","EPOCH":"2025-09-07T05:35:59.242848","MEAN_MOTION":13.14504555,"ECCENTRICITY":0.00016481,"INCLINATION":87.9084,"RA_OF_ASC_NODE":346.0263,"ARG_OF_PERICENTER":112.0588,"MEAN_ANOMALY":248.0717,"EPHEMERIS_TYPE":0,"CLASSIFICATION_TYPE":"U","NORAD_CAT_ID":48217,"ELEMENT_SET_NO":999,"REV_AT_EPOCH":21105,"BSTAR":-0.00029998438,"MEAN_MOTION_DOT":-9.8e-7,"MEAN_MOTION_DDOT":0},{"OBJECT_NAME":"ONEWEB-0196","OBJECT_ID":"2021-031J","EPOCH":"2025-09-07T06:53:38.037984","MEAN_MOTION":13.14503051,"ECCENTRICITY":0.00018008,"INCLINATION":87.9092,"RA_OF_ASC_NODE":346.0301,"ARG_OF_PERICENTER":104.9411,"MEAN_ANOMALY":255.1918,"EPHEMERIS_TYPE":0,"CLASSIFICATION_TYPE":"U","NORAD_CAT_ID":48218,"ELEMENT_SET_NO":999,"REV_AT_EPOCH":21106,"BSTAR":-0.00043556054,"MEAN_MOTION_DOT":-1.49e-6,"MEAN_MOTION_DDOT":0},{"OBJECT_NAME":"ONEWEB-0183","OBJECT_ID":"2021-031K","EPOCH":"2025-09-07T06:17:05.720928","MEAN_MOTION":13.14502394,"ECCENTRICITY":0.00020186,"INCLINATION":87.9088,"RA_OF_ASC_NODE":346.0454,"ARG_OF_PERICENTER":99.5719,"MEAN_ANOMALY":260.5639,"EPHEMERIS_TYPE":0,"CLASSIFICATION_TYPE":"U","NORAD_CAT_ID":48219,"ELEMENT_SET_NO":999,"REV_AT_EPOCH":21115,"BSTAR":0.00070169487,"MEAN_MOTION_DOT":2.73e-6,"MEAN_MOTION_DDOT":0},{"OBJECT_NAME":"ONEWEB-0185","OBJECT_ID":"2021-031L","EPOCH":"2025-09-07T05:05:08.928960","MEAN_MOTION":13.14503937,"ECCENTRICITY":0.00021762,"INCLINATION":87.9096,"RA_OF_ASC_NODE":346.0216,"ARG_OF_PERICENTER":107.7021,"MEAN_ANOMALY":252.4347,"EPHEMERIS_TYPE":0,"CLASSIFICATION_TYPE":"U","NORAD_CAT_ID":48220,"ELEMENT_SET_NO":999,"REV_AT_EPOCH":21107,"BSTAR":-0.00033806376,"MEAN_MOTION_DOT":-1.13e-6,"MEAN_MOTION_DDOT":0},{"OBJECT_NAME":"ONEWEB-0187","OBJECT_ID":"2021-031M","EPOCH":"2025-09-07T06:26:02.396256","MEAN_MOTION":13.14502797,"ECCENTRICITY":0.00019499,"INCLINATION":87.9092,"RA_OF_ASC_NODE":346.0566,"ARG_OF_PERICENTER":109.1327,"MEAN_ANOMALY":251.0014,"EPHEMERIS_TYPE":0,"CLASSIFICATION_TYPE":"U","NORAD_CAT_ID":48221,"ELEMENT_SET_NO":999,"REV_AT_EPOCH":21109,"BSTAR":0.00048484165,"MEAN_MOTION_DOT":1.93e-6,"MEAN_MOTION_DDOT":0},{"OBJECT_NAME":"ONEWEB-0192","OBJECT_ID":"2021-031N","EPOCH":"2025-09-07T05:42:50.481792","MEAN_MOTION":13.14503616,"ECCENTRICITY":0.00017657,"INCLINATION":87.9086,"RA_OF_ASC_NODE":346.0563,"ARG_OF_PERICENTER":101.757,"MEAN_ANOMALY":258.3758,"EPHEMERIS_TYPE":0,"CLASSIFICATION_TYPE":"U","NORAD_CAT_ID":48222,"ELEMENT_SET_NO":999,"REV_AT_EPOCH":21100,"BSTAR":0.00010448649,"MEAN_MOTION_DOT":5.2e-7,"MEAN_MOTION_DDOT":0},{"OBJECT_NAME":"ONEWEB-0219","OBJECT_ID":"2021-031P","EPOCH":"2025-09-07T05:13:09.350976","MEAN_MOTION":13.14502615,"ECCENTRICITY":0.00020182,"INCLINATION":87.909,"RA_OF_ASC_NODE":346.033,"ARG_OF_PERICENTER":107.6166,"MEAN_ANOMALY":252.5185,"EPHEMERIS_TYPE":0,"CLASSIFICATION_TYPE":"U","NORAD_CAT_ID":48223,"ELEMENT_SET_NO":999,"REV_AT_EPOCH":21120,"BSTAR":-0.00040992755,"MEAN_MOTION_DOT":-1.39e-6,"MEAN_MOTION_DDOT":0},{"OBJECT_NAME":"ONEWEB-0202","OBJECT_ID":"2021-031Q","EPOCH":"2025-09-07T06:35:21.710976","MEAN_MOTION":13.14502431,"ECCENTRICITY":0.00013361,"INCLINATION":87.9091,"RA_OF_ASC_NODE":346.0356,"ARG_OF_PERICENTER":122.5749,"MEAN_ANOMALY":237.551,"EPHEMERIS_TYPE":0,"CLASSIFICATION_TYPE":"U","NORAD_CAT_ID":48224,"ELEMENT_SET_NO":999,"REV_AT_EPOCH":21119,"BSTAR":0.0002024986,"MEAN_MOTION_DOT":8.8e-7,"MEAN_MOTION_DDOT":0},{"OBJECT_NAME":"ONEWEB-0204","OBJECT_ID":"2021-031R","EPOCH":"2025-09-07T05:34:50.793312","MEAN_MOTION":13.1450342,"ECCENTRICITY":0.00021084,"INCLINATION":87.9081,"RA_OF_ASC_NODE":346.0345,"ARG_OF_PERICENTER":97.77,"MEAN_ANOMALY":262.367,"EPHEMERIS_TYPE":0,"CLASSIFICATION_TYPE":"U","NORAD_CAT_ID":48225,"ELEMENT_SET_NO":999,"REV_AT_EPOCH":21108,"BSTAR":-0.00014638841,"MEAN_MOTION_DOT":-4.1e-7,"MEAN_MOTION_DDOT":0},{"OBJECT_NAME":"ONEWEB-0205","OBJECT_ID":"2021-031S","EPOCH":"2025-09-07T06:49:03.606528","MEAN_MOTION":13.14502974,"ECCENTRICITY":0.00019127,"INCLINATION":87.9088,"RA_OF_ASC_NODE":346.0146,"ARG_OF_PERICENTER":106.2872,"MEAN_ANOMALY":253.8468,"EPHEMERIS_TYPE":0,"CLASSIFICATION_TYPE":"U","NORAD_CAT_ID":48226,"ELEMENT_SET_NO":999,"REV_AT_EPOCH":21110,"BSTAR":-0.0003125622,"MEAN_MOTION_DOT":-1.03e-6,"MEAN_MOTION_DDOT":0}]
